{
  "norad_id": 56148,
  "name": "STARLINK-5089",
  "history": [
    {
      "epoch": "2026-03-28T20:00:01.999872Z",
      "apogee_km": 492.17179961492366,
      "perigee_km": 489.91087825644627,
      "latitude_deg": 11.463104459361142,
      "longitude_deg": -111.94977224551788,
      "height_km": 490.47443471571825,
      "semi_major_axis_km": 6869.178338935685,
      "eccentricity": 0.00016457,
      "inclination_deg": 43.0008,
      "raan_deg": 1.8178,
      "arg_perigee_deg": 265.0411,
      "mean_anomaly_deg": 111.8651,
      "mean_motion_rev_day": 15.24914782
    },
    {
      "epoch": "2026-03-29T04:00:01.999584Z",
      "apogee_km": 491.05088830082695,
      "perigee_km": 489.0398844980891,
      "latitude_deg": 31.207116206696856,
      "longitude_deg": 153.60130707752413,
      "height_km": 491.374694431578,
      "semi_major_axis_km": 6868.182386399458,
      "eccentricity": 0.0001464,
      "inclination_deg": 43.001,
      "raan_deg": 359.9439,
      "arg_perigee_deg": 285.7873,
      "mean_anomaly_deg": 123.4108,
      "mean_motion_rev_day": 15.25246485
    },
    {
      "epoch": "2026-03-30T04:00:01.999584Z",
      "apogee_km": 487.0623716916425,
      "perigee_km": 484.9756682615698,
      "latitude_deg": 20.82203900649098,
      "longitude_deg": -97.18798292351896,
      "height_km": 485.8724128905177,
      "semi_major_axis_km": 6864.156019976606,
      "eccentricity": 0.000152,
      "inclination_deg": 43.0012,
      "raan_deg": 354.3087,
      "arg_perigee_deg": 263.5247,
      "mean_anomaly_deg": 245.1854,
      "mean_motion_rev_day": 15.26588697
    },
    {
      "epoch": "2026-03-30T06:00:02.000160Z",
      "apogee_km": 486.89894714302136,
      "perigee_km": 484.6895849471075,
      "latitude_deg": -39.11440069223365,
      "longitude_deg": -43.686747474303104,
      "height_km": 496.4053792294373,
      "semi_major_axis_km": 6863.931266045064,
      "eccentricity": 0.00016094,
      "inclination_deg": 43.0004,
      "raan_deg": 353.8407,
      "arg_perigee_deg": 261.454,
      "mean_anomaly_deg": 345.7207,
      "mean_motion_rev_day": 15.26663678
    },
    {
      "epoch": "2026-03-30T14:00:03.000384Z",
      "apogee_km": 487.0962375981244,
      "perigee_km": 484.52129698298177,
      "latitude_deg": -42.107374869196235,
      "longitude_deg": -120.56994037732437,
      "height_km": 497.5164378448138,
      "semi_major_axis_km": 6863.945767290553,
      "eccentricity": 0.00018757,
      "inclination_deg": 43.001,
      "raan_deg": 351.9589,
      "arg_perigee_deg": 261.2627,
      "mean_anomaly_deg": 20.184,
      "mean_motion_rev_day": 15.2665884
    },
    {
      "epoch": "2026-03-30T22:00:00.999936Z",
      "apogee_km": 486.6036803122133,
      "perigee_km": 484.53990035313655,
      "latitude_deg": -28.711830756514598,
      "longitude_deg": 156.03239995992323,
      "height_km": 492.62486714755426,
      "semi_major_axis_km": 6863.708790332675,
      "eccentricity": 0.00015034,
      "inclination_deg": 43.0006,
      "raan_deg": 350.0803,
      "arg_perigee_deg": 252.7036,
      "mean_anomaly_deg": 62.8145,
      "mean_motion_rev_day": 15.26737905
    },
    {
      "epoch": "2026-03-31T20:00:01.999008Z",
      "apogee_km": 486.6809488018889,
      "perigee_km": 484.42965772641674,
      "latitude_deg": -26.333014385712314,
      "longitude_deg": -176.15993054946279,
      "height_km": 491.74561606067005,
      "semi_major_axis_km": 6863.6923032641525,
      "eccentricity": 0.000164,
      "inclination_deg": 43.0009,
      "raan_deg": 344.9118,
      "arg_perigee_deg": 252.9083,
      "mean_anomaly_deg": 66.7964,
      "mean_motion_rev_day": 15.26743406
    },
    {
      "epoch": "2026-04-01T20:00:01.999008Z",
      "apogee_km": 486.70993969477604,
      "perigee_km": 484.324133551645,
      "latitude_deg": 37.33358792046369,
      "longitude_deg": -96.49997503168262,
      "height_km": 488.59349045506286,
      "semi_major_axis_km": 6863.65403662321,
      "eccentricity": 0.0001738,
      "inclination_deg": 43.0008,
      "raan_deg": 339.2715,
      "arg_perigee_deg": 255.7466,
      "mean_anomaly_deg": 166.6658,
      "mean_motion_rev_day": 15.26756174
    },
    {
      "epoch": "2026-04-02T20:00:01.999008Z",
      "apogee_km": 486.7975941682398,
      "perigee_km": 484.2909777626046,
      "latitude_deg": 10.074626416641955,
      "longitude_deg": 11.524896431293003,
      "height_km": 484.75787262671133,
      "semi_major_axis_km": 6863.681285965422,
      "eccentricity": 0.0001826,
      "inclination_deg": 43.0009,
      "raan_deg": 333.6314,
      "arg_perigee_deg": 263.6678,
      "mean_anomaly_deg": 261.4961,
      "mean_motion_rev_day": 15.26747082
    },
    {
      "epoch": "2026-04-02T22:00:01.999584Z",
      "apogee_km": 486.80284601549556,
      "perigee_km": 484.47465328121416,
      "latitude_deg": -42.843587554481466,
      "longitude_deg": 73.40008385510913,
      "height_km": 497.7098787133299,
      "semi_major_axis_km": 6863.775749648355,
      "eccentricity": 0.0001696,
      "inclination_deg": 43.0008,
      "raan_deg": 333.1617,
      "arg_perigee_deg": 273.1554,
      "mean_anomaly_deg": 350.602,
      "mean_motion_rev_day": 15.26715564
    },
    {
      "epoch": "2026-04-03T17:15:44.421696Z",
      "apogee_km": 486.6650140574966,
      "perigee_km": 484.420590762109,
      "latitude_deg": 3.5716019042352305e-05,
      "longitude_deg": -122.35489227920122,
      "height_km": 485.73725702531806,
      "semi_major_axis_km": 6863.6798024098025,
      "eccentricity": 0.0001635,
      "inclination_deg": 43.0014,
      "raan_deg": 328.6297,
      "arg_perigee_deg": 248.16,
      "mean_anomaly_deg": 111.9078,
      "mean_motion_rev_day": 15.26747577
    },
    {
      "epoch": "2026-04-04T21:31:28.888032Z",
      "apogee_km": 486.74405378715164,
      "perigee_km": 484.3335308488895,
      "latitude_deg": 1.1978787040531232e-05,
      "longitude_deg": 165.91061159047194,
      "height_km": 485.4173560395647,
      "semi_major_axis_km": 6863.67579231802,
      "eccentricity": 0.0001756,
      "inclination_deg": 43.0019,
      "raan_deg": 321.9912,
      "arg_perigee_deg": 265.1786,
      "mean_anomaly_deg": 94.8865,
      "mean_motion_rev_day": 15.26748915
    },
    {
      "epoch": "2026-04-05T00:39:53.589312Z",
      "apogee_km": 486.72647003432667,
      "perigee_km": 484.33338392356745,
      "latitude_deg": 6.5973980524348284e-06,
      "longitude_deg": 117.93982048617586,
      "height_km": 485.37606808360977,
      "semi_major_axis_km": 6863.666926978947,
      "eccentricity": 0.00017433,
      "inclination_deg": 43.0025,
      "raan_deg": 321.2523,
      "arg_perigee_deg": 266.703,
      "mean_anomaly_deg": 93.3622,
      "mean_motion_rev_day": 15.26751873
    },
    {
      "epoch": "2026-04-05T21:04:36.752160Z",
      "apogee_km": 486.7283768934849,
      "perigee_km": 484.426287106533,
      "latitude_deg": -9.908653480365825e-06,
      "longitude_deg": 166.1252655326231,
      "height_km": 485.35675465784595,
      "semi_major_axis_km": 6863.714332000009,
      "eccentricity": 0.0001677,
      "inclination_deg": 43.002,
      "raan_deg": 316.4559,
      "arg_perigee_deg": 269.891,
      "mean_anomaly_deg": 90.1749,
      "mean_motion_rev_day": 15.26736056
    },
    {
      "epoch": "2026-04-06T00:13:01.710048Z",
      "apogee_km": 486.72607357218567,
      "perigee_km": 484.4248080650286,
      "latitude_deg": -1.4609399749456856e-05,
      "longitude_deg": 118.15440293393883,
      "height_km": 485.356610439813,
      "semi_major_axis_km": 6863.712440818607,
      "eccentricity": 0.00016764,
      "inclination_deg": 43.0019,
      "raan_deg": 315.718,
      "arg_perigee_deg": 269.8034,
      "mean_anomaly_deg": 90.2625,
      "mean_motion_rev_day": 15.26736687
    },
    {
      "epoch": "2026-04-06T23:46:09.821280Z",
      "apogee_km": 486.82734391005397,
      "perigee_km": 484.34116679693943,
      "latitude_deg": -4.598548140670826e-05,
      "longitude_deg": 118.36781357651054,
      "height_km": 485.2460686464618,
      "semi_major_axis_km": 6863.721255353496,
      "eccentricity": 0.00018111,
      "inclination_deg": 43.003,
      "raan_deg": 310.1825,
      "arg_perigee_deg": 275.3382,
      "mean_anomaly_deg": 84.7262,
      "mean_motion_rev_day": 15.26733746
    },
    {
      "epoch": "2026-04-07T20:10:52.181472Z",
      "apogee_km": 486.81442379928103,
      "perigee_km": 484.3654460289026,
      "latitude_deg": 1.5279099193289783e-05,
      "longitude_deg": 166.55559414302925,
      "height_km": 485.2531184611147,
      "semi_major_axis_km": 6863.7269349140915,
      "eccentricity": 0.0001784,
      "inclination_deg": 43.0036,
      "raan_deg": 305.385,
      "arg_perigee_deg": 275.357,
      "mean_anomaly_deg": 84.7078,
      "mean_motion_rev_day": 15.26731851
    },
    {
      "epoch": "2026-04-08T15:01:21.840672Z",
      "apogee_km": 486.8670594236073,
      "perigee_km": 484.27683294149574,
      "latitude_deg": -1.2673739480318542e-05,
      "longitude_deg": -121.26861392968308,
      "height_km": 485.09746031641333,
      "semi_major_axis_km": 6863.708946182551,
      "eccentricity": 0.00018869,
      "inclination_deg": 43.0026,
      "raan_deg": 300.9582,
      "arg_perigee_deg": 281.2181,
      "mean_anomaly_deg": 78.8458,
      "mean_motion_rev_day": 15.26737853
    },
    {
      "epoch": "2026-04-08T19:43:59.003616Z",
      "apogee_km": 486.8187798351555,
      "perigee_km": 484.3007640374026,
      "latitude_deg": -5.288959111574106e-06,
      "longitude_deg": 166.77540164569996,
      "height_km": 485.1653880432047,
      "semi_major_axis_km": 6863.696771936278,
      "eccentricity": 0.00018343,
      "inclination_deg": 43.0033,
      "raan_deg": 299.8505,
      "arg_perigee_deg": 277.8472,
      "mean_anomaly_deg": 82.2171,
      "mean_motion_rev_day": 15.26741915
    }
  ]
}